{
    "links": {
        "self": "http://www.neowsapp.com/rest/v1/neo/3485630?api_key=iIulBulltgU6a56xZRHN4H3l9WmuAYTsLGpBGhQ2"
    },
    "id": "3485630",
    "neo_reference_id": "3485630",
    "name": "(2010 AE40)",
    "designation": "2010 AE40",
    "nasa_jpl_url": "http://ssd.jpl.nasa.gov/sbdb.cgi?sstr=3485630",
    "absolute_magnitude_h": 23.9,
    "estimated_diameter": {
        "kilometers": {
            "estimated_diameter_min": 0.04411182,
            "estimated_diameter_max": 0.0986370281
        },
        "meters": {
            "estimated_diameter_min": 44.1118199997,
            "estimated_diameter_max": 98.6370281305
        },
        "miles": {
            "estimated_diameter_min": 0.0274098057,
            "estimated_diameter_max": 0.0612901888
        },
        "feet": {
            "estimated_diameter_min": 144.7238235278,
            "estimated_diameter_max": 323.6123073718
        }
    },
    "is_potentially_hazardous_asteroid": false,
    "close_approach_data": [
        {
            "close_approach_date": "2010-01-10",
            "close_approach_date_full": "2010-Jan-10 23:19",
            "epoch_date_close_approach": 1263165540000,
            "relative_velocity": {
                "kilometers_per_second": "13.2755332027",
                "kilometers_per_hour": "47791.9195297308",
                "miles_per_hour": "29696.0402211263"
            },
            "miss_distance": {
                "astronomical": "0.0664676487",
                "lunar": "25.8559153443",
                "kilometers": "9943418.669428269",
                "miles": "6178553.8578333522"
            },
            "orbiting_body": "Earth"
        }
    ],
    "orbital_data": {
        "orbit_id": "10",
        "orbit_determination_date": "2017-04-06 08:58:36",
        "first_observation_date": "2010-01-12",
        "last_observation_date": "2010-01-17",
        "data_arc_in_days": 5,
        "observations_used": 43,
        "orbit_uncertainty": "8",
        "minimum_orbit_intersection": ".062712",
        "jupiter_tisserand_invariant": "3.784",
        "epoch_osculation": "2455210.5",
        "eccentricity": ".4529897326474415",
        "semi_major_axis": "1.864945852677201",
        "inclination": "21.43274343850517",
        "ascending_node_longitude": "294.5835627390863",
        "orbital_period": "930.2459056994721",
        "perihelion_distance": "1.020144529471001",
        "perihelion_argument": "155.3111658568697",
        "aphelion_distance": "2.709747175883401",
        "perihelion_time": "2455188.455883847526",
        "mean_anomaly": "8.530950543580708",
        "mean_motion": ".3869944471610527",
        "equinox": "J2000",
        "orbit_class": {
            "orbit_class_type": "AMO",
            "orbit_class_description": "Near-Earth asteroid orbits similar to that of 1221 Amor",
            "orbit_class_range": "1.017 AU < q (perihelion) < 1.3 AU"
        }
    },
    "is_sentry_object": false
}